[
    {
        "Altitude(m)": 612513.9505551034,
        "Argument of Periapsis(deg)": 0.0,
        "Eccentricity": 0.0,
        "Inclination(deg)": 60.0,
        "Latitude(deg)": -28.136024558472965,
        "Longitude(deg)": -37.08684217828149,
        "Mean Anomaly(deg)": -147.2727,
        "RAAN(deg)": 225.0,
        "Satellite Name": "Test1 1003",
        "Satellite Number": 1003,
        "Semi-Major Axis(m)": 6980739.136638005,
        "Time(s)": 0
    },
    {
        "Altitude(m)": 612708.3185945611,
        "Argument of Periapsis(deg)": 0.00010418945913296404,
        "Eccentricity": 0.0,
        "Inclination(deg)": 60.0,
        "Latitude(deg)": -28.647763205402743,
        "Longitude(deg)": -36.729610669194344,
        "Mean Anomaly(deg)": -146.65259385453814,
        "RAAN(deg)": 224.99957995086024,
        "Satellite Name": "Test1 1003",
        "Satellite Number": 1003,
        "Semi-Major Axis(m)": 6980739.136638005,
        "Time(s)": 10
    },
    {
        "Altitude(m)": 612903.5132935577,
        "Argument of Periapsis(deg)": 0.0002083789182659281,
        "Eccentricity": 0.0,
        "Inclination(deg)": 60.0,
        "Latitude(deg)": -29.15826169309888,
        "Longitude(deg)": -36.36851191551353,
        "Mean Anomaly(deg)": -146.03248770907632,
        "RAAN(deg)": 224.9991599017205,
        "Satellite Name": "Test1 1003",
        "Satellite Number": 1003,
        "Semi-Major Axis(m)": 6980739.136638005,
        "Time(s)": 20
    },
    {
        "Altitude(m)": 613099.4634419744,
        "Argument of Periapsis(deg)": 0.00031256837739889213,
        "Eccentricity": 0.0,
        "Inclination(deg)": 60.0,
        "Latitude(deg)": -29.667482952425907,
        "Longitude(deg)": -36.0034344462197,
        "Mean Anomaly(deg)": -145.4123815636145,
        "RAAN(deg)": 224.99873985258074,
        "Satellite Name": "Test1 1003",
        "Satellite Number": 1003,
        "Semi-Major Axis(m)": 6980739.136638005,
        "Time(s)": 30
    },
    {
        "Altitude(m)": 613296.0973478432,
        "Argument of Periapsis(deg)": 0.0004167578365318562,
        "Eccentricity": 0.0,
        "Inclination(deg)": 60.0,
        "Latitude(deg)": -30.175388923477424,
        "Longitude(deg)": -35.6342638028549,
        "Mean Anomaly(deg)": -144.79227541815268,
        "RAAN(deg)": 224.99831980344103,
        "Satellite Name": "Test1 1003",
        "Satellite Number": 1003,
        "Semi-Major Axis(m)": 6980739.136638005,
        "Time(s)": 40
    },
    {
        "Altitude(m)": 613493.3428690606,
        "Argument of Periapsis(deg)": 0.0005209472956648203,
        "Eccentricity": 0.0,
        "Inclination(deg)": 60.0,
        "Latitude(deg)": -30.681940517068576,
        "Longitude(deg)": -35.26088348183597,
        "Mean Anomaly(deg)": -144.1721692726908,
        "RAAN(deg)": 224.99789975430127,
        "Satellite Name": "Test1 1003",
        "Satellite Number": 1003,
        "Semi-Major Axis(m)": 6980739.136638005,
        "Time(s)": 50
    },
    {
        "Altitude(m)": 613691.1274453002,
        "Argument of Periapsis(deg)": 0.0006251367547977843,
        "Eccentricity": 0.0,
        "Inclination(deg)": 60.0,
        "Latitude(deg)": -31.187097574887055,
        "Longitude(deg)": -34.883174363778885,
        "Mean Anomaly(deg)": -143.552063127229,
        "RAAN(deg)": 224.99747970516154,
        "Satellite Name": "Test1 1003",
        "Satellite Number": 1003,
        "Semi-Major Axis(m)": 6980739.136638005,
        "Time(s)": 60
    },
    {
        "Altitude(m)": 613889.3781300673,
        "Argument of Periapsis(deg)": 0.0007293262139307483,
        "Eccentricity": 0.0,
        "Inclination(deg)": 60.0,
        "Latitude(deg)": -31.690818828264383,
        "Longitude(deg)": -34.501014142874176,
        "Mean Anomaly(deg)": -142.9319569817672,
        "RAAN(deg)": 224.99705965602178,
        "Satellite Name": "Test1 1003",
        "Satellite Number": 1003,
        "Semi-Major Axis(m)": 6980739.136638005,
        "Time(s)": 70
    },
    {
        "Altitude(m)": 614088.0216229552,
        "Argument of Periapsis(deg)": 0.0008335156730637124,
        "Eccentricity": 0.0,
        "Inclination(deg)": 60.0,
        "Latitude(deg)": -32.19306185553144,
        "Longitude(deg)": -34.11427826937442,
        "Mean Anomaly(deg)": -142.31185083630535,
        "RAAN(deg)": 224.99663960688207,
        "Satellite Name": "Test1 1003",
        "Satellite Number": 1003,
        "Semi-Major Axis(m)": 6980739.136638005,
        "Time(s)": 80
    },
    {
        "Altitude(m)": 614286.9843020355,
        "Argument of Periapsis(deg)": 0.0009377051321966765,
        "Eccentricity": 0.0,
        "Inclination(deg)": 60.0,
        "Latitude(deg)": -32.6937830379148,
        "Longitude(deg)": -33.72283937965721,
        "Mean Anomaly(deg)": -141.6917446908435,
        "RAAN(deg)": 224.9962195577423,
        "Satellite Name": "Test1 1003",
        "Satellite Number": 1003,
        "Semi-Major Axis(m)": 6980739.136638005,
        "Time(s)": 90
    },
    {
        "Altitude(m)": 614486.1922563618,
        "Argument of Periapsis(deg)": 0.0010418945913296407,
        "Eccentricity": 0.0,
        "Inclination(deg)": 60.0,
        "Latitude(deg)": -33.192937513940194,
        "Longitude(deg)": -33.326566726971244,
        "Mean Anomaly(deg)": -141.0716385453817,
        "RAAN(deg)": 224.99579950860257,
        "Satellite Name": "Test1 1003",
        "Satellite Number": 1003,
        "Semi-Major Axis(m)": 6980739.136638005,
        "Time(s)": 100
    },
    {
        "Altitude(m)": 614685.5713186174,
        "Argument of Periapsis(deg)": 0.0011460840504626045,
        "Eccentricity": 0.0,
        "Inclination(deg)": 60.0,
        "Latitude(deg)": -33.69047913230807,
        "Longitude(deg)": -32.92532712600755,
        "Mean Anomaly(deg)": -140.45153239991984,
        "RAAN(deg)": 224.9953794594628,
        "Satellite Name": "Test1 1003",
        "Satellite Number": 1003,
        "Semi-Major Axis(m)": 6980739.136638005,
        "Time(s)": 110
    },
    {
        "Altitude(m)": 614885.0470978235,
        "Argument of Periapsis(deg)": 0.0012502735095955685,
        "Eccentricity": 0.0,
        "Inclination(deg)": 60.0,
        "Latitude(deg)": -34.18636040320452,
        "Longitude(deg)": -32.518984385838166,
        "Mean Anomaly(deg)": -139.831426254458,
        "RAAN(deg)": 224.9949594103231,
        "Satellite Name": "Test1 1003",
        "Satellite Number": 1003,
        "Semi-Major Axis(m)": 6980739.136638005,
        "Time(s)": 120
    },
    {
        "Altitude(m)": 615084.5450121781,
        "Argument of Periapsis(deg)": 0.0013544629687285324,
        "Eccentricity": 0.0,
        "Inclination(deg)": 60.0,
        "Latitude(deg)": -34.680532448016024,
        "Longitude(deg)": -32.10739874442757,
        "Mean Anomaly(deg)": -139.2113201089962,
        "RAAN(deg)": 224.99453936118334,
        "Satellite Name": "Test1 1003",
        "Satellite Number": 1003,
        "Semi-Major Axis(m)": 6980739.136638005,
        "Time(s)": 130
    },
    {
        "Altitude(m)": 615283.9903219219,
        "Argument of Periapsis(deg)": 0.0014586524278614966,
        "Eccentricity": 0.0,
        "Inclination(deg)": 60.0,
        "Latitude(deg)": -35.17294494742189,
        "Longitude(deg)": -31.690427817953083,
        "Mean Anomaly(deg)": -138.59121396353433,
        "RAAN(deg)": 224.9941193120436,
        "Satellite Name": "Test1 1003",
        "Satellite Number": 1003,
        "Semi-Major Axis(m)": 6980739.136638005,
        "Time(s)": 140
    },
    {
        "Altitude(m)": 615483.3081622899,
        "Argument of Periapsis(deg)": 0.0015628418869944607,
        "Eccentricity": 0.0,
        "Inclination(deg)": 60.0,
        "Latitude(deg)": -35.66354608783341,
        "Longitude(deg)": -31.267926039589963,
        "Mean Anomaly(deg)": -137.97110781807254,
        "RAAN(deg)": 224.99369926290385,
        "Satellite Name": "Test1 1003",
        "Satellite Number": 1003,
        "Semi-Major Axis(m)": 6980739.136638005,
        "Time(s)": 150
    },
    {
        "Altitude(m)": 615682.4235764632,
        "Argument of Periapsis(deg)": 0.0016670313461274247,
        "Eccentricity": 0.0,
        "Inclination(deg)": 60.0,
        "Latitude(deg)": -36.15228250615977,
        "Longitude(deg)": -30.83974410107963,
        "Mean Anomaly(deg)": -137.3510016726107,
        "RAAN(deg)": 224.99327921376414,
        "Satellite Name": "Test1 1003",
        "Satellite Number": 1003,
        "Semi-Major Axis(m)": 6980739.136638005,
        "Time(s)": 160
    },
    {
        "Altitude(m)": 615881.261548575,
        "Argument of Periapsis(deg)": 0.0017712208052603888,
        "Eccentricity": 0.0,
        "Inclination(deg)": 60.0,
        "Latitude(deg)": -36.63909923288373,
        "Longitude(deg)": -30.405729910448667,
        "Mean Anomaly(deg)": -136.7308955271489,
        "RAAN(deg)": 224.9928591646244,
        "Satellite Name": "Test1 1003",
        "Satellite Number": 1003,
        "Semi-Major Axis(m)": 6980739.136638005,
        "Time(s)": 170
    },
    {
        "Altitude(m)": 616079.7470367234,
        "Argument of Periapsis(deg)": 0.001875410264393353,
        "Eccentricity": 0.0,
        "Inclination(deg)": 60.0,
        "Latitude(deg)": -37.12393963343011,
        "Longitude(deg)": -29.965728040669624,
        "Mean Anomaly(deg)": -136.11078938168708,
        "RAAN(deg)": 224.99243911548464,
        "Satellite Name": "Test1 1003",
        "Satellite Number": 1003,
        "Semi-Major Axis(m)": 6980739.136638005,
        "Time(s)": 180
    },
    {
        "Altitude(m)": 616277.8050059469,
        "Argument of Periapsis(deg)": 0.0019795997235263173,
        "Eccentricity": 0.0,
        "Inclination(deg)": 60.0,
        "Latitude(deg)": -37.606745347821885,
        "Longitude(deg)": -29.519579182733075,
        "Mean Anomaly(deg)": -135.4906832362252,
        "RAAN(deg)": 224.99201906634488,
        "Satellite Name": "Test1 1003",
        "Satellite Number": 1003,
        "Semi-Major Axis(m)": 6980739.136638005,
        "Time(s)": 190
    }
]